{"type": "FeatureCollection", "features": [ {"type": "Feature", "properties": {"norad_id": 62339, "name": "GPS BIII-7  (PRN 01)", "group": "gps-ops", "lat": -2.8551381419845927, "lon": 164.22285432041107, "alt_km": 20210.911723757334, "timestamp": "2025-12-01T03:58:49.192510+00:00", "meta": {"OBJECT_NAME": "GPS BIII-7  (PRN 01)", "OBJECT_ID": "2024-242A", "EPOCH": "2025-11-26T22:16:50.684160", "MEAN_MOTION": 2.00567458, "ECCENTRICITY": 0.0011414, "INCLINATION": 54.9285, "RA_OF_ASC_NODE": 342.382, "ARG_OF_PERICENTER": 343.1444, "MEAN_ANOMALY": 20.6436, "EPHEMERIS_TYPE": 0, "CLASSIFICATION_TYPE": "U", "NORAD_CAT_ID": 62339, "ELEMENT_SET_NO": 999, "REV_AT_EPOCH": 720, "BSTAR": 0, "MEAN_MOTION_DOT": -5.6e-07, "MEAN_MOTION_DDOT": 0, "GROUP": "gps-ops"}, "tle": {"line1": "1 62339U 24242A   25330.92836440 -.00000056  00000+0  00000+0 0  9996", "line2": "2 62339  54.9285 342.3820 0011414 343.1444  20.6436  2.00567458  7201"}}, "geometry": {"type": "Point", "coordinates": [164.22285432041107, -2.8551381419845927]}}, {"type": "Feature", "properties": {"norad_id": 64202, "name": "GPS BIII-8  (PRN 21)", "group": "gps-ops", "lat": 10.947352307379765, "lon": 46.874031831244345, "alt_km": 20176.798292094827, "timestamp": "2025-12-01T03:58:49.192688+00:00", "meta": {"OBJECT_NAME": "GPS BIII-8  (PRN 21)", "OBJECT_ID": "2025-116A", "EPOCH": "2025-11-27T15:37:05.200896", "MEAN_MOTION": 2.0055919, "ECCENTRICITY": 0.00048631, "INCLINATION": 55.0944, "RA_OF_ASC_NODE": 39.2516, "ARG_OF_PERICENTER": 304.421, "MEAN_ANOMALY": 50.9436, "EPHEMERIS_TYPE": 0, "CLASSIFICATION_TYPE": "U", "NORAD_CAT_ID": 64202, "ELEMENT_SET_NO": 999, "REV_AT_EPOCH": 382, "BSTAR": 0, "MEAN_MOTION_DOT": -6e-07, "MEAN_MOTION_DDOT": 0, "GROUP": "gps-ops"}, "tle": {"line1": "1 64202U 25116A   25331.65075464 -.00000060  00000+0  00000+0 0  9995", "line2": "2 64202  55.0944  39.2516 0004863 304.4210  50.9436  2.00559190  3825"}}, "geometry": {"type": "Point", "coordinates": [46.874031831244345, 10.947352307379765]}}]}